ALOUETTE 1 (S-27)       
1 00424U 62049A   09129.57812007  .00000050  00000-0  46908-4 0  1316
2 00424  80.4640 313.2838 0023294 144.0840 216.1873 13.68713562326419
IUE                     
1 10637U 78012A   09123.08541310 -.00000356  00000-0  10000-3 0  4974
2 10637  42.9218  15.9248 1541217 152.4540 216.5775  1.00073495 67001
IRAS                    
1 13777U 83004A   09129.55444855 -.00000050  00000-0 -37450-5 0  8441
2 13777  99.0723 323.1523 0014808 313.6775  46.3161 14.00095817 12198
AKEBONO (EXOS-D)        
1 19822U 89016A   09129.87463197  .00009759  14211-6  30875-3 0  2198
2 19822  75.0780 314.6497 2701873 349.5407   5.8591  9.99660897591630
INTERCOSMOS 24          
1 20261U 89080A   09129.48313394  .00000096  00000-0  19259-4 0  9324
2 20261  82.5854 124.1112 1216545  69.0040 303.6725 12.53428352894732
COBE                    
1 20322U 89089A   09129.09098800 -.00000120  00000-0 -47800-4 0  8984
2 20322  98.9862 131.7065 0008096 228.8145 131.2351 14.04366560997689
HST                     
1 20580U 90037B   09129.00948007  .00000322  00000-0  12038-4 0  3835
2 20580  28.4690 357.9770 0003891 242.3697 117.6496 15.00481366843966
ROSAT                   
1 20638U 90049A   09130.19530026  .00005801  00000-0  78261-4 0  6708
2 20638  52.9948 260.6749 0003103 166.0245 194.0863 15.59447820 53883
CRRES                   
1 20712U 90065A   09127.95730960  .00000110  00000-0  69181-4 0  8855
2 20712  17.8776  92.9457 7121415  31.0544 356.0602  2.42716790156118
SARA                    
1 21578U 91050E   09129.51657381  .00000094  00000-0  35055-4 0  5277
2 21578  98.2208 101.5269 0002927 307.0484  53.0439 14.50442551938818
UARS                    
1 21701U 91063B   09129.55701039  .00003887  00000-0  55975-4 0  6618
2 21701  56.9710 173.9090 0082919  96.9835 264.0667 15.54978122973216
SAMPEX                  
1 22012U 92038A   09129.96889058  .00002058  00000-0  50522-4 0  8962
2 22012  81.6393 347.0768 0048277  46.9479 313.5790 15.38834693928536
ORBVIEW 1 (MICROLAB)    
1 23547U 95017C   09129.01826559  .00000058  00000-0  28181-4 0  9212
2 23547  69.9807 298.1765 0012550 310.4473  49.5571 14.55483122746918
RXTE (XTE)              
1 23757U 95074A   09129.78459327  .00001220  00000-0  27594-4 0  8631
2 23757  22.9852 308.9766 0008459 220.9586 139.0353 15.27215299739894
FAST                    
1 24285U 96049A   09128.91993365  .00000324  00000-0  29324-4 0  7737
2 24285  82.9726  78.3899 1997549 241.7881  96.7511 11.26190042514113
TRACE                   
1 25280U 98020A   09129.18697270  .00000273  00000-0  27510-4 0  1787
2 25280  97.6843 339.1892 0022564  28.8942 331.3524 14.98797172605213
SAFIR 2                 
1 25399U 98043F   09129.26693205  .00000010  00000-0  22386-4 0  3301
2 25399  98.3337 160.9607 0001040 330.7521  29.3614 14.23934218562812
SWAS                    
1 25560U 98071A   09129.41473970  .00000025  00000-0  12382-4 0  9402
2 25560  69.8996 101.7034 0011227 288.1243  71.8700 14.86858966564609
ASTRID 2                
1 25568U 98072B   09130.12311032  .00000220  00000-0  22520-3 0   492
2 25568  82.9503   7.4307 0025396 157.8841 202.3425 13.71993402521448
ORSTED                  
1 25635U 99008B   09129.51980622  .00000084  00000-0  29044-4 0  6331
2 25635  96.4469 329.9278 0142463 312.6988  46.2309 14.45809646538151
SUNSAT (SO-35)          
1 25636U 99008C   09129.99761383  .00000028  00000-0  15653-4 0  3027
2 25636  96.4488 323.2750 0147945 343.4886  16.1527 14.43462111537599
WIRE                    
1 25646U 99011A   09130.21093647  .00005889  00000-0  83358-4 0  7975
2 25646  97.2785  34.1644 0005250 268.1774  91.8897 15.56894300569173
ABRIXAS                 
1 25721U 99022A   09129.23742988  .00000159  00000-0  21786-4 0  5600
2 25721  48.4438 157.3043 0020264  14.8252 345.3270 15.20177952554534
TERRIERS                
1 25735U 99026A   09129.58496583  .00000222  00000-0  12003-4 0  7126
2 25735  97.2294   4.0847 0006554 182.5709 177.5498 15.23898587553002
FUSE 1                  
1 25791U 99035A   09129.53785441  .00000345  00000-0  49503-4 0  4327
2 25791  24.9859 204.8453 0010811 225.2567 134.7060 14.41793675520813
CXO                     
1 25867U 99040B   09126.83333333  .00000354  00000-0  10000-3 0  3212
2 25867  65.2711  70.5744 7445696 276.1145 359.2721  0.37805562  4858
CLEMENTINE              
1 25978U 99064B   09129.24554407  .00000451  00000-0  58864-4 0  6353
2 25978  98.1438 202.5766 0009500 252.5023 107.5146 14.85479049510132
XMM-NEWTON              
1 25989U 99066A   09126.16666667  .00000294  00000-0  10000-3 0  6700
2 25989  58.7821  99.9004 5842737 112.8604   0.3953  0.50123834  6029
TERRA                   
1 25994U 99068A   09130.13677035  .00000078  00000-0  27243-4 0  6653
2 25994  98.2027 205.7074 0001558 109.9598 250.1775 14.57118035499615
ACRIMSAT                
1 26033U 99070B   09129.79281223  .00000041  00000-0  17772-4 0  6602
2 26033  97.9827  14.0400 0028079 319.1395  40.7721 14.60544631499944
IMAGE                   
1 26113U 00017A   09126.40238063  .00000126  00000-0  00000-0 0  8207
2 26113  91.3273 212.0892 7427495 288.8156   8.9129  1.68637312 56120
CLUSTER II-FM6          
1 26410U 00041A   09128.12500000  .00000619  00000-0  00000-0 0  3255
2 26410 111.7759 192.0073 8463315  35.9313 354.2806  0.42183714  4431
CLUSTER II-FM7          
1 26411U 00041B   09128.12500000  .00000622  00000-0  00000-0 0  3395
2 26411 111.8265 192.0813 8463694  35.9571 356.8144  0.42040496  4514
CLUSTER II-FM5          
1 26463U 00045A   09128.12500000  .00000511  00000-0  00000-0 0  3269
2 26463 114.3964 194.6514 8336908  33.9167 357.1709  0.42038006  5018
CLUSTER II-FM8          
1 26464U 00045B   09128.12500000  .00000407  00000-0  00000-0 0  3163
2 26464 106.6532 184.7650 8409176  31.1263 357.0531  0.42040655  4395
MEGSAT-1                
1 26546U 00057B   09129.24791399  .00000051  00000-0  24056-4 0  6758
2 26546  64.5590 191.1265 0049704 275.5704  83.9731 14.84201290466405
HETE-2                  
1 26561U 00061A   09129.11161813  .00000937  00000-0  11228-4 0  4363
2 26561   1.9483 148.0030 0023859 141.3683 218.8224 14.96039913469243
MUNIN                   
1 26621U 00075C   09130.24195067  .00000567  00000-0  51788-3 0  5543
2 26621  95.4002 164.1607 0718369 133.4886 232.8304 13.03721885402760
ODIN                    
1 26702U 01007A   09129.08317816  .00000983  00000-0  93379-4 0  6891
2 26702  97.7110 150.1073 0002761 216.2996 143.8035 14.95724608447614
TIMED                   
1 26998U 01055B   09129.37736639 -.00000136  00000-0 -12026-4 0  2888
2 26998  74.0732  66.7694 0002188 205.1837 154.9227 14.84067823401763
RHESSI                  
1 27370U 02004A   09129.84614865  .00000215  00000-0  24145-4 0   481
2 27370  38.0391   8.3117 0016846 331.3285  28.6549 15.02119317397963
INTEGRAL                
1 27540U 02048A   09128.04166667 -.00000601  00000-0  10000-3 0  8001
2 27540  86.7001   2.4688 8355697 264.5554 354.0147  0.33415691  4161
FEDSAT                  
1 27598U 02056B   09129.23192069  .00000040  00000-0  32754-4 0  7781
2 27598  98.3816 182.5639 0008945 355.0301   5.0790 14.28007780333686
WEOS                    
1 27599U 02056C   09129.22674523 -.00000020  00000-0  88084-5 0  7878
2 27599  98.4039 187.8222 0010001   6.7247 353.4065 14.28559365333806
MICRO LABSAT            
1 27600U 02056D   09129.18671000  .00000031  00000-0  28799-4 0  7601
2 27600  98.3955 187.4353 0010964   9.4424 350.6981 14.28857739333870
CORIOLIS                
1 27640U 03001A   09129.13803536  .00000098  00000-0  68646-4 0  9242
2 27640  98.7480 135.7352 0014390 164.2490 195.9141 14.18340219328125
CHIPSAT                 
1 27643U 03002B   09129.48946917 -.00000428  00000-0 -35798-4 0   674
2 27643  94.0129 288.3068 0009594 258.3249 101.6927 14.97245452345173
SORCE                   
1 27651U 03004A   09129.39285796  .00000055  00000-0  22662-4 0  8966
2 27651  39.9954 167.5906 0026028  74.4158 285.9519 14.82175189340533
GALEX                   
1 27783U 03017A   09129.37316540  .00000170  00000-0  13474-4 0  6626
2 27783  28.9978 135.2660 0003895  77.1945 282.9058 14.59745259322106
MOST                    
1 27843U 03031D   09129.18170225  .00000007  00000-0  23729-4 0  5684
2 27843  98.7183 137.5531 0009012 265.9588  94.0549 14.20114157303645
QUAKESAT                
1 27845U 03031F   09129.61756406  .00000075  00000-0  55704-4 0  5497
2 27845  98.7199 138.7325 0008059 274.8902  85.1358 14.20266560303697
AAU CUBESAT             
1 27846U 03031G   09129.59056784 -.00000009  00000-0  15864-4 0  4857
2 27846  98.7062 140.2750 0008602 233.1750 126.8622 14.20977516303866
SCISAT 1                
1 27858U 03036A   09129.43188552 -.00000031  00000-0  51441-6 0  7353
2 27858  73.9345 257.8759 0008738 319.0622  40.9859 14.74801398309007
KAISTSAT 4              
1 27945U 03042G   09129.16273831 -.00000021  00000-0  47297-5 0  6915
2 27945  97.9537   6.5167 0011378 262.6173  97.3744 14.63141512299878
GP-B                    
1 28230U 04014A   09129.11907259  .00000051  00000-0  51179-5 0  5023
2 28230  89.9420 158.2236 0001864  76.9773 283.1684 14.75969275272013
DEMETER                 
1 28368U 04025C   09130.16753658  .00000110  00000-0  26254-4 0  5454
2 28368  97.9724 196.5636 0001309  90.5473 269.5893 14.70219671260136
DOUBLESTAR (TC-2)       
1 28382U 04029A   09127.83634388 -.00000290  00000-0 -28041-2 0   542
2 28382  89.2666 336.1236 7295754 293.7725   8.7099  2.11749976 36794
SWIFT                   
1 28485U 04047A   09129.04354895  .00000691  00000-0  27138-4 0  2917
2 28485  20.5611 109.5864 0014168 288.1080  71.7851 14.92534924243814
SUZAKU (ASTRO-EII)      
1 28773U 05025A   09129.18606048  .00000249  00000-0  13458-4 0  9915
2 28773  31.4049 156.1611 0006424 200.1639 159.8756 15.00781854210348
